CCSDS_OMM_VERS = 2.0
CREATION_DATE  = 
ORIGINATOR     = 

OBJECT_NAME    = COSMOS 1933
OBJECT_ID      = 1988-020A
CENTER_NAME    = EARTH
REF_FRAME      = TEME
TIME_SYSTEM    = UTC
MEAN_ELEMENT_THEORY = SGP/SGP4

EPOCH          = 2026-03-01T14:46:57.570240
MEAN_MOTION    = 15.17897279
ECCENTRICITY   = .0003222
INCLINATION    = 82.5095
RA_OF_ASC_NODE = 258.9022
ARG_OF_PERICENTER = 212.5027
MEAN_ANOMALY   = 147.6008

EPHEMERIS_TYPE = 0
CLASSIFICATION_TYPE = U
NORAD_CAT_ID   = 18958
ELEMENT_SET_NO = 999
REV_AT_EPOCH   = 4900
BSTAR          = .25409E-3
MEAN_MOTION_DOT = .5179E-4
MEAN_MOTION_DDOT = 0

CCSDS_OMM_VERS = 2.0
CREATION_DATE  = 
ORIGINATOR     = 

OBJECT_NAME    = SL-3 R/B
OBJECT_ID      = 1988-032B
CENTER_NAME    = EARTH
REF_FRAME      = TEME
TIME_SYSTEM    = UTC
MEAN_ELEMENT_THEORY = SGP/SGP4

EPOCH          = 2026-03-01T19:58:06.194496
MEAN_MOTION    = 15.19795493
ECCENTRICITY   = .0024093
INCLINATION    = 97.5174
RA_OF_ASC_NODE = 44.1116
ARG_OF_PERICENTER = 260.9985
MEAN_ANOMALY   = 98.8523

EPHEMERIS_TYPE = 0
CLASSIFICATION_TYPE = U
NORAD_CAT_ID   = 19046
ELEMENT_SET_NO = 999
REV_AT_EPOCH   = 5091
BSTAR          = .33608E-3
MEAN_MOTION_DOT = .7181E-4
MEAN_MOTION_DDOT = 0

CCSDS_OMM_VERS = 2.0
CREATION_DATE  = 
ORIGINATOR     = 

OBJECT_NAME    = SL-16 R/B
OBJECT_ID      = 1988-039B
CENTER_NAME    = EARTH
REF_FRAME      = TEME
TIME_SYSTEM    = UTC
MEAN_ELEMENT_THEORY = SGP/SGP4

EPOCH          = 2026-03-01T19:21:33.567264
MEAN_MOTION    = 14.19615049
ECCENTRICITY   = .0022301
INCLINATION    = 71.0128
RA_OF_ASC_NODE = 85.2180
ARG_OF_PERICENTER = 346.0390
MEAN_ANOMALY   = 14.0116

EPHEMERIS_TYPE = 0
CLASSIFICATION_TYPE = U
NORAD_CAT_ID   = 19120
ELEMENT_SET_NO = 999
REV_AT_EPOCH   = 95726
BSTAR          = .98858E-4
MEAN_MOTION_DOT = .161E-5
MEAN_MOTION_DDOT = 0

CCSDS_OMM_VERS = 2.0
CREATION_DATE  = 
ORIGINATOR     = 

OBJECT_NAME    = COSMOS 1953
OBJECT_ID      = 1988-050A
CENTER_NAME    = EARTH
REF_FRAME      = TEME
TIME_SYSTEM    = UTC
MEAN_ELEMENT_THEORY = SGP/SGP4

EPOCH          = 2026-03-01T18:27:59.102784
MEAN_MOTION    = 15.28350590
ECCENTRICITY   = .0012147
INCLINATION    = 82.5114
RA_OF_ASC_NODE = 166.2096
ARG_OF_PERICENTER = 148.1522
MEAN_ANOMALY   = 212.0454

EPHEMERIS_TYPE = 0
CLASSIFICATION_TYPE = U
NORAD_CAT_ID   = 19210
ELEMENT_SET_NO = 999
REV_AT_EPOCH   = 3657
BSTAR          = .38085E-3
MEAN_MOTION_DOT = .10569E-3
MEAN_MOTION_DDOT = 0

CCSDS_OMM_VERS = 2.0
CREATION_DATE  = 
ORIGINATOR     = 

OBJECT_NAME    = SL-8 R/B
OBJECT_ID      = 1988-053B
CENTER_NAME    = EARTH
REF_FRAME      = TEME
TIME_SYSTEM    = UTC
MEAN_ELEMENT_THEORY = SGP/SGP4

EPOCH          = 2026-03-01T16:07:57.439776
MEAN_MOTION    = 14.38910072
ECCENTRICITY   = .0021205
INCLINATION    = 74.0471
RA_OF_ASC_NODE = 127.2449
ARG_OF_PERICENTER = 307.7641
MEAN_ANOMALY   = 170.6435

EPHEMERIS_TYPE = 0
CLASSIFICATION_TYPE = U
NORAD_CAT_ID   = 19257
ELEMENT_SET_NO = 999
REV_AT_EPOCH   = 97544
BSTAR          = .982E-4
MEAN_MOTION_DOT = .277E-5
MEAN_MOTION_DDOT = 0

CCSDS_OMM_VERS = 2.0
CREATION_DATE  = 
ORIGINATOR     = 

OBJECT_NAME    = COSMOS 1975
OBJECT_ID      = 1988-093A
CENTER_NAME    = EARTH
REF_FRAME      = TEME
TIME_SYSTEM    = UTC
MEAN_ELEMENT_THEORY = SGP/SGP4

EPOCH          = 2026-03-01T16:04:38.134848
MEAN_MOTION    = 15.27922171
ECCENTRICITY   = .0011379
INCLINATION    = 82.5204
RA_OF_ASC_NODE = 125.7347
ARG_OF_PERICENTER = 191.1597
MEAN_ANOMALY   = 168.9392

EPHEMERIS_TYPE = 0
CLASSIFICATION_TYPE = U
NORAD_CAT_ID   = 19573
ELEMENT_SET_NO = 999
REV_AT_EPOCH   = 1818
BSTAR          = .3234E-3
MEAN_MOTION_DOT = .886E-4
MEAN_MOTION_DDOT = 0

CCSDS_OMM_VERS = 2.0
CREATION_DATE  = 
ORIGINATOR     = 

OBJECT_NAME    = SL-14 R/B
OBJECT_ID      = 1988-093B
CENTER_NAME    = EARTH
REF_FRAME      = TEME
TIME_SYSTEM    = UTC
MEAN_ELEMENT_THEORY = SGP/SGP4

EPOCH          = 2026-03-01T10:55:33.492864
MEAN_MOTION    = 14.85644508
ECCENTRICITY   = .0022208
INCLINATION    = 82.5289
RA_OF_ASC_NODE = 49.7747
ARG_OF_PERICENTER = 67.1816
MEAN_ANOMALY   = 47.2516

EPHEMERIS_TYPE = 0
CLASSIFICATION_TYPE = U
NORAD_CAT_ID   = 19574
ELEMENT_SET_NO = 999
REV_AT_EPOCH   = 99981
BSTAR          = .75787E-4
MEAN_MOTION_DOT = .684E-5
MEAN_MOTION_DDOT = 0

CCSDS_OMM_VERS = 2.0
CREATION_DATE  = 
ORIGINATOR     = 

OBJECT_NAME    = SL-16 R/B
OBJECT_ID      = 1988-102B
CENTER_NAME    = EARTH
REF_FRAME      = TEME
TIME_SYSTEM    = UTC
MEAN_ELEMENT_THEORY = SGP/SGP4

EPOCH          = 2026-03-01T17:04:13.304640
MEAN_MOTION    = 14.16149492
ECCENTRICITY   = .0013464
INCLINATION    = 70.9999
RA_OF_ASC_NODE = 168.2830
ARG_OF_PERICENTER = 13.7096
MEAN_ANOMALY   = 346.4390

EPHEMERIS_TYPE = 0
CLASSIFICATION_TYPE = U
NORAD_CAT_ID   = 19650
ELEMENT_SET_NO = 999
REV_AT_EPOCH   = 92576
BSTAR          = -.52138E-4
MEAN_MOTION_DOT = -.151E-5
MEAN_MOTION_DDOT = 0

CCSDS_OMM_VERS = 2.0
CREATION_DATE  = 
ORIGINATOR     = 

OBJECT_NAME    = INTERCOSMOS 24
OBJECT_ID      = 1989-080A
CENTER_NAME    = EARTH
REF_FRAME      = TEME
TIME_SYSTEM    = UTC
MEAN_ELEMENT_THEORY = SGP/SGP4

EPOCH          = 2026-03-01T05:22:55.315776
MEAN_MOTION    = 12.59542780
ECCENTRICITY   = .11869
INCLINATION    = 82.6036
RA_OF_ASC_NODE = 109.9167
ARG_OF_PERICENTER = 312.4888
MEAN_ANOMALY   = 38.1632

EPHEMERIS_TYPE = 0
CLASSIFICATION_TYPE = U
NORAD_CAT_ID   = 20261
ELEMENT_SET_NO = 999
REV_AT_EPOCH   = 66573
BSTAR          = .21821E-3
MEAN_MOTION_DOT = .736E-5
MEAN_MOTION_DDOT = 0

CCSDS_OMM_VERS = 2.0
CREATION_DATE  = 
ORIGINATOR     = 

OBJECT_NAME    = SL-14 R/B
OBJECT_ID      = 1989-080C
CENTER_NAME    = EARTH
REF_FRAME      = TEME
TIME_SYSTEM    = UTC
MEAN_ELEMENT_THEORY = SGP/SGP4

EPOCH          = 2026-03-01T19:03:12.294720
MEAN_MOTION    = 12.50481556
ECCENTRICITY   = .1230263
INCLINATION    = 82.5971
RA_OF_ASC_NODE = 178.2535
ARG_OF_PERICENTER = 202.7932
MEAN_ANOMALY   = 151.3742

EPHEMERIS_TYPE = 0
CLASSIFICATION_TYPE = U
NORAD_CAT_ID   = 20262
ELEMENT_SET_NO = 999
REV_AT_EPOCH   = 65916
BSTAR          = .20789E-3
MEAN_MOTION_DOT = .698E-5
MEAN_MOTION_DDOT = 0

CCSDS_OMM_VERS = 2.0
CREATION_DATE  = 
ORIGINATOR     = 

OBJECT_NAME    = DELTA 1 R/B
OBJECT_ID      = 1989-089B
CENTER_NAME    = EARTH
REF_FRAME      = TEME
TIME_SYSTEM    = UTC
MEAN_ELEMENT_THEORY = SGP/SGP4

EPOCH          = 2026-03-01T13:12:52.305696
MEAN_MOTION    = 14.50655375
ECCENTRICITY   = .0069941
INCLINATION    = 97.0711
RA_OF_ASC_NODE = 269.2837
ARG_OF_PERICENTER = 147.3275
MEAN_ANOMALY   = 213.2279

EPHEMERIS_TYPE = 0
CLASSIFICATION_TYPE = U
NORAD_CAT_ID   = 20323
ELEMENT_SET_NO = 999
REV_AT_EPOCH   = 89455
BSTAR          = .1159E-3
MEAN_MOTION_DOT = .435E-5
MEAN_MOTION_DDOT = 0

CCSDS_OMM_VERS = 2.0
CREATION_DATE  = 
ORIGINATOR     = 

OBJECT_NAME    = ARIANE 40 R/B
OBJECT_ID      = 1990-005H
CENTER_NAME    = EARTH
REF_FRAME      = TEME
TIME_SYSTEM    = UTC
MEAN_ELEMENT_THEORY = SGP/SGP4

EPOCH          = 2026-03-01T18:03:39.975264
MEAN_MOTION    = 14.39864180
ECCENTRICITY   = .0009369
INCLINATION    = 98.3101
RA_OF_ASC_NODE = 121.6499
ARG_OF_PERICENTER = 223.3598
MEAN_ANOMALY   = 136.6854

EPHEMERIS_TYPE = 0
CLASSIFICATION_TYPE = U
NORAD_CAT_ID   = 20443
ELEMENT_SET_NO = 999
REV_AT_EPOCH   = 89166
BSTAR          = .10892E-3
MEAN_MOTION_DOT = .3E-5
MEAN_MOTION_DDOT = 0

