COSMOS 1933             
1 18958U 88020A   26060.61594410  .00005179  00000+0  25409-3 0  9997
2 18958  82.5095 258.9022 0003222 212.5027 147.6008 15.17897279 49003
SL-3 R/B                
1 19046U 88032B   26060.83201614  .00007181  00000+0  33608-3 0  9999
2 19046  97.5174  44.1116 0024093 260.9985  98.8523 15.19795493 50912
SL-16 R/B               
1 19120U 88039B   26060.80663851  .00000161  00000+0  98858-4 0  9991
2 19120  71.0128  85.2180 0022301 346.0390  14.0116 14.19615049957263
COSMOS 1953             
1 19210U 88050A   26060.76943406  .00010569  00000+0  38085-3 0  9994
2 19210  82.5114 166.2096 0012147 148.1522 212.0454 15.28350590 36571
SL-8 R/B                
1 19257U 88053B   26060.67219259  .00000277  00000+0  98200-4 0  9991
2 19257  74.0471 127.2449 0021205 307.7641 170.6435 14.38910072975446
COSMOS 1975             
1 19573U 88093A   26060.66988582  .00008860  00000+0  32340-3 0  9995
2 19573  82.5204 125.7347 0011379 191.1597 168.9392 15.27922171 18184
SL-14 R/B               
1 19574U 88093B   26060.45524876  .00000684  00000+0  75787-4 0  9994
2 19574  82.5289  49.7747 0022208  67.1816  47.2516 14.85644508999819
SL-16 R/B               
1 19650U 88102B   26060.71126510 -.00000151  00000+0 -52138-4 0  9998
2 19650  70.9999 168.2830 0013464  13.7096 346.4390 14.16149492925767
INTERCOSMOS 24          
1 20261U 89080A   26060.22425134  .00000736  00000+0  21821-3 0  9995
2 20261  82.6036 109.9167 1186900 312.4888  38.1632 12.59542780665733
SL-14 R/B               
1 20262U 89080C   26060.79389230  .00000698  00000+0  20789-3 0  9993
2 20262  82.5971 178.2535 1230263 202.7932 151.3742 12.50481556659166
DELTA 1 R/B             
1 20323U 89089B   26060.55060539  .00000435  00000+0  11590-3 0  9991
2 20323  97.0711 269.2837 0069941 147.3275 213.2279 14.50655375894550
ARIANE 40 R/B           
1 20443U 90005H   26060.75254601  .00000300  00000+0  10892-3 0  9996
2 20443  98.3101 121.6499 0009369 223.3598 136.6854 14.39864180891665
